[{"OBJECT_NAME":"STARLINK-5856","OBJECT_ID":"2023-037A","EPOCH":"2026-03-09T21:23:38.555808","MEAN_MOTION":14.98331752,"ECCENTRICITY":0.00025085,"INCLINATION":69.9994,"RA_OF_ASC_NODE":304.0996,"ARG_OF_PERICENTER":272.5008,"MEAN_ANOMALY":87.5864,"EPHEMERIS_TYPE":0,"CLASSIFICATION_TYPE":"U","NORAD_CAT_ID":55914,"ELEMENT_SET_NO":999,"REV_AT_EPOCH":16420,"BSTAR":-2.2290122e-5,"MEAN_MOTION_DOT":-3.59e-6,"MEAN_MOTION_DDOT":0},{"OBJECT_NAME":"CZ-4B R\/B","OBJECT_ID":"2024-208C","EPOCH":"2026-03-09T16:49:23.143584","MEAN_MOTION":15.26980605,"ECCENTRICITY":0.01307988,"INCLINATION":97.9574,"RA_OF_ASC_NODE":113.1946,"ARG_OF_PERICENTER":150.913,"MEAN_ANOMALY":209.9477,"EPHEMERIS_TYPE":0,"CLASSIFICATION_TYPE":"U","NORAD_CAT_ID":61938,"ELEMENT_SET_NO":999,"REV_AT_EPOCH":7308,"BSTAR":0.00035146236,"MEAN_MOTION_DOT":0.000119,"MEAN_MOTION_DDOT":0}]
